#dP2022  7  8  0  0  0.00000000      97 __u+U IGS14 FIT  IAC
## 2217 432000.00000000   900.00000000 59768 0.0000000000000
+  113   C06C07C08C09C10C11C12C13C14C19C20C21C22C23C24C25C26
+        C27C28C29C30C32C33C34C35C36C37C38C39C41C42C43C44C45
+        C46E01E02E03E04E05E07E08E09E10E11E12E13E14E15E18E19
+        E21E24E25E26E27E30E31E33E34E36G01G02G03G04G05G06G07
+        G08G09G10G11G12G13G14G15G16G17G18G19G20G21G22G23G24
+        G25G26G27G28G29G30G31G32J02R01R02R03R04R05R07R08R09
+        R11R12R13R14R15R17R18R19R20R21R24  0  0  0  0  0  0
++         7  7  7  7  7  7  6  7  7  6  5  6  5  6  6  6  6
++         6  6  5  6  6  6  6  5  6  6  6  6  6  6  6  6  6
++         6  4  4  4  4  4  5  4  4  5  4  4  4  4  4  5  4
++         4  4  4  4  4  4  4  4  4  4  3  4  3  3  4  3  4
++         3  3  3  3  3  4  3  3  4  3  3  4  4  3  3  3  3
++         3  3  3  4  4  3  4  3  9  7  6  6  6  6  6  6  6
++         6  6  7  6  6  6  6  7  7  6  6  0  0  0  0  0  0
%c M  cc GPS ccc cccc cccc cccc cccc ccccc ccccc ccccc ccccc
%c cc cc ccc ccc cccc cccc cccc cccc ccccc ccccc ccccc ccccc
%f  1.2500000  1.025000000  0.00000000000  0.000000000000000
%f  0.0000000  0.000000000  0.00000000000  0.000000000000000
%i    0    0    0    0      0      0      0      0         0
%i    0    0    0    0      0      0      0      0         0
/* INFORMATION & ANALYSIS CENTER (IAC)            FINAL DATA
/* S/V CLOCKS ARE ALIGNED TO GNSS TIME                      
/* G:C1WC2W R:C1PC2P E:C1XC5X C:C2IC6I J:C1CC2S             
/* PCV:IGS14_2215 OL/AL:FES2004  NONE     YN ORB:CoN CLK:CoN
*  2022 07 08 20  0  0.00000000
PC06 -16772.479014  36049.673366  13683.573424    352.755646
PC07  -1483.067257  36292.413771  21564.349120   -403.081340
PC08  -7809.510312  19887.570888 -36374.967799    396.229909
PC09 -11339.010128  34877.448010  20723.295107   -934.093162
PC10   3900.577205  38581.657254  17422.026455    120.159725
PC11   6253.516429 -23613.392323  13517.007567    462.523383
PC12  17934.693487 -21054.905566  -3606.889426   -581.663104
PC13  -2721.266545  22041.236525 -35719.673315     18.335838
PC14  -4839.738356 -25644.572976   9816.577888    533.038014
PC19  11759.774724  25315.372432   -562.009620   -167.868726
PC20  -1308.359305  22756.831908 -16109.334084   -964.049852
PC21  14531.596908  -6218.776427  23013.440495   -639.150256
PC22  18568.647125  13409.569727  15963.212314   -962.868618
PC23 -25935.553015  -7337.704335  -7215.919740   -942.605620
PC24  10921.831385 -14437.098879 -21233.742669   -968.042005
PC25 -12207.264493 -15105.310832 -20049.145229   -710.459325
PC26  24969.905948  -6273.937740 -10731.184759    712.338985
PC27 -20454.973603  14950.111224  11661.089136    751.185023
PC28 -16833.306615  -2694.467971  22092.272614     87.713511
PC29   3596.654976  19507.139988 -19640.767635    579.036701
PC30 -11984.416122  24705.783901  -4932.599837    500.863063
PC32 -14494.135771   6304.950067 -22983.326345   -973.215493
PC33 -11817.360174 -25258.320623    690.032087   -119.091491
PC34  11319.921641 -24824.367113   5894.441816   -363.233021
PC35  16419.276265   3349.751977 -22332.340108    356.834340
PC36  11240.195708  15521.248496  20315.184257   -973.568984
PC37 -25714.408182   4929.215190   9703.153451   -914.841228
PC38 -16547.399094  20204.763946 -33125.118822      8.744980
PC39 -20814.981562  36180.176595   5140.935256     -0.029825
PC41 -18573.455595 -13804.855688 -15540.468901    -64.548823
PC42   2232.858571 -22118.087800  16896.124221   -954.698025
PC43  -2975.200534 -20048.272872  19176.693758      1.810385
PC44  20025.284556 -15463.651729 -11821.910148    717.731271
PC45  26058.524981   7117.773749   6974.248373    803.879423
PC46  -9204.881635  14806.302191  21805.339006   -421.335326
PE01 -24333.856516  -3105.741299  16570.814277   -511.364876
PE02  24258.172965   2952.893689 -16691.955950    310.695913
PE03  17004.862712  -6358.775881  23377.561242   -576.970197
PE04 -10604.255721  24710.819228 -12369.024912  -1067.140625
PE05  13526.420302  16092.891358  20846.186152   -164.809046
PE07  -2230.646246 -28843.160669  -6226.120082   -685.717532
PE08  10363.600458 -24852.377833  12280.634505   -560.232983
PE09   2303.303257  28844.732028   6283.472174   -580.786651
PE10 -11298.082647  19421.565226 -19288.635784   -524.981904
PE11    -74.187999  17363.776620 -23987.913342   3079.445438
PE12 -20084.769981  18270.057377 -11782.089666    -51.820636
PE13    894.513464 -17545.831946  23818.098113    429.711610
PE14  20067.868078   -963.924302 -23194.575490  -1784.833847
PE15  20197.656096 -18241.322999  11640.498201    734.491384
PE18 -15961.343472  16792.065715  13433.719342  -1237.187660
PE19 -17009.972854   3461.521990 -23966.538391  -5149.009383
PE21 -24499.638210 -16608.979001    252.293779   -744.763821
PE24   9434.559132  21508.878492  17995.903782   -714.052729
PE25  24387.564646  16775.081830     42.122262   -580.371450
PE26 -19564.297000  -6057.867811  21367.016896  -1354.139797
PE27 -10636.741821 -21561.932594 -17262.834578   -340.263912
PE30  10329.028265 -13167.804253 -24418.976930   -656.372021
PE31  -9368.890590  13785.434211  24472.641980   -499.588305
PE33 -27483.623198   8178.356391   7328.481981   -454.888464
PE34  27478.564906  -8341.563032  -7172.092308   -526.094650
PE36  18783.165979   6561.375413 -21923.761772   -399.363220
PG01   -169.723865  15339.351438 -21942.594214    325.320667
PG02  19740.792057 -15744.511498   9139.885979   -651.731207
PG03   8365.326730  20444.867825 -14946.585317   -301.812597
PG04   -634.853295  25578.154810   6958.915743   -148.233604
PG05   5402.971477 -14637.806803  21305.681119    -88.413990
PG06  25555.894703  -5621.152630  -4737.652335    376.625514
PG07  16534.202371   8884.679600  19387.173737    319.943893
PG08  -4981.867331  25863.174459   1174.394155    -75.391028
PG09   7928.851155  19927.596639  15578.689138   -320.999953
PG10 -22479.036391  -9645.582934 -10564.725192   -484.658542
PG11  21960.800081 -12450.133636   8209.624642    -11.233852
PG12  -4140.743129 -20335.984854 -16904.736970   -243.356201
PG13  13175.498327 -21224.668496   8595.131673    344.603848
PG14  22191.359561  11174.429240  -9524.174242   -111.977434
PG15   1921.977997 -26292.390731    746.808700    -47.000013
PG16 -11691.645987   9350.030426  21681.106147   -514.160695
PG17  14112.364966   3867.165472 -21733.427688    634.533391
PG18 -16121.013770  -8535.654388  19338.450008    119.204851
PG19  16109.659118  -5450.910668 -20594.740616    181.106960
PG20  16040.605483  -7094.723661  19883.983293    504.852346
PG21  -9897.550326  17225.449271 -16644.054305    161.178208
PG22 -15983.344797   8866.417160 -18789.863686    289.010842
PG23 -21017.673787 -16328.061544   -650.407985    -32.016195
PG24   3565.757988 -17611.510238 -19738.516754    201.986447
PG25 -16437.131162 -20019.189951  -6773.298804    346.832313
PG26 -19380.690272   1998.782105  18099.679595    217.080948
PG27 -12419.318348  19269.377841  12850.765584    220.143577
PG28  19913.766330   4242.674966 -16419.288389    332.346620
PG29  -6008.817318 -20039.204628  16266.327781   -531.696351
PG30  23618.392853   1647.776396  12380.704097   -533.520843
PG31 -25850.527234   6782.292914  -2332.634382   -184.965628
PG32 -15265.597881   -667.887801 -21565.531752   -171.160513
PJ02 -27272.396172  20811.324156  29522.520501     -1.459961
PR01  10688.911401  21435.269402   8797.172619     11.164865
PR02  11953.176651   4786.731891  22051.885090    523.585263
PR03   6445.540059 -13666.713775  20612.284678     59.856111
PR04  -2556.667866 -24154.990794   7832.841892    149.921651
PR05 -10066.869827 -21525.712557  -9289.762813     95.908474
PR07  -6090.130522  14268.430501 -20193.731625     37.560872
PR08   2742.669381  24178.658804  -7552.415606    -66.108720
PR09 -24781.759540  -3759.165310   4528.797372     64.713398
PR11    863.804809  11365.806860  22834.864724     33.874665
PR12  18835.692086  11330.410154  12961.433871     19.210900
PR13  24883.423952   4656.530730  -3155.204768    -24.410554
PR14  16151.621156  -5347.567036 -18996.518336     24.951838
PR15  -1694.349181 -11661.595534 -22597.650577     94.773178
PR17  18639.936918 -17283.975915  -1827.884119    541.769295
PR18   9941.085131 -18658.608054  14314.461432    122.929142
PR19  -2776.720583 -11180.055155  22749.410901   -195.579661
PR20 -17261.780590   4978.810071  18090.080149    -74.210306
PR21 -18314.574211  17776.676395    248.539249   -315.821143
PR24  17669.835057  -5743.508837 -17459.133181    102.575272
EOF
